{
    "links": {
        "self": "http://www.neowsapp.com/rest/v1/neo/3766343?api_key=iIulBulltgU6a56xZRHN4H3l9WmuAYTsLGpBGhQ2"
    },
    "id": "3766343",
    "neo_reference_id": "3766343",
    "name": "(2017 AS4)",
    "designation": "2017 AS4",
    "nasa_jpl_url": "http://ssd.jpl.nasa.gov/sbdb.cgi?sstr=3766343",
    "absolute_magnitude_h": 26.8,
    "estimated_diameter": {
        "kilometers": {
            "estimated_diameter_min": 0.0116025908,
            "estimated_diameter_max": 0.0259441818
        },
        "meters": {
            "estimated_diameter_min": 11.6025908209,
            "estimated_diameter_max": 25.9441817907
        },
        "miles": {
            "estimated_diameter_min": 0.0072095135,
            "estimated_diameter_max": 0.0161209622
        },
        "feet": {
            "estimated_diameter_min": 38.066244069,
            "estimated_diameter_max": 85.1187093863
        }
    },
    "is_potentially_hazardous_asteroid": false,
    "close_approach_data": [
        {
            "close_approach_date": "2017-01-08",
            "close_approach_date_full": "2017-Jan-08 13:46",
            "epoch_date_close_approach": 1483883160000,
            "relative_velocity": {
                "kilometers_per_second": "19.2208816179",
                "kilometers_per_hour": "69195.1738242924",
                "miles_per_hour": "42995.1900909888"
            },
            "miss_distance": {
                "astronomical": "0.0054995367",
                "lunar": "2.1393197763",
                "kilometers": "822718.976306829",
                "miles": "511213.8665750802"
            },
            "orbiting_body": "Moon"
        },
        {
            "close_approach_date": "2017-01-08",
            "close_approach_date_full": "2017-Jan-08 17:05",
            "epoch_date_close_approach": 1483895100000,
            "relative_velocity": {
                "kilometers_per_second": "18.4488330368",
                "kilometers_per_hour": "66415.7989326503",
                "miles_per_hour": "41268.1946201237"
            },
            "miss_distance": {
                "astronomical": "0.003754971",
                "lunar": "1.460683719",
                "kilometers": "561735.66351177",
                "miles": "349046.355811626"
            },
            "orbiting_body": "Earth"
        }
    ],
    "orbital_data": {
        "orbit_id": "4",
        "orbit_determination_date": "2017-04-06 08:21:09",
        "first_observation_date": "2017-01-05",
        "last_observation_date": "2017-01-07",
        "data_arc_in_days": 2,
        "observations_used": 46,
        "orbit_uncertainty": "8",
        "minimum_orbit_intersection": ".00101161",
        "jupiter_tisserand_invariant": "3.324",
        "epoch_osculation": "2457759.5",
        "eccentricity": ".6825817017783955",
        "semi_major_axis": "2.189435923815751",
        "inclination": "1.947569321601948",
        "ascending_node_longitude": "106.9660548992185",
        "orbital_period": "1183.305236205166",
        "perihelion_distance": ".6949670250028424",
        "perihelion_argument": "75.59974438601698",
        "aphelion_distance": "3.683904822628661",
        "perihelion_time": "2457805.319307686422",
        "mean_anomaly": "346.0602739999606",
        "mean_motion": ".3042325758267682",
        "equinox": "J2000",
        "orbit_class": {
            "orbit_class_type": "APO",
            "orbit_class_description": "Near-Earth asteroid orbits which cross the Earth’s orbit similar to that of 1862 Apollo",
            "orbit_class_range": "a (semi-major axis) > 1.0 AU; q (perihelion) < 1.017 AU"
        }
    },
    "is_sentry_object": false
}